NORAD_CAT_ID,OBJECT_NAME,OBJECT_TYPE,EPOCH,MEAN_MOTION,ECCENTRICITY,INCLINATION,RA_OF_ASC_NODE,ARG_OF_PERICENTER,MEAN_ANOMALY,BSTAR,MEAN_MOTION_DOT,MEAN_MOTION_DDOT,TLE_LINE0,TLE_LINE1,TLE_LINE2,SEMIMAJOR_AXIS,PERIOD,APOGEE,PERIGEE,DECAYED
50206.0,STARLINK-3258,PAYLOAD,2022-08-08 11:56:56,15.09083401,8.49e-05,53.2197,356.3171,115.4909,244.6172,0.0013521,0.0002144,0.0,0 STARLINK-3258,1 50206U 21125BC  22220.49787489  .00021440  00000-0  13521-2 0  9993,2 50206  53.2197 356.3171 0000849 115.4909 244.6172 15.09083401 37016,6917.137,95.422,539.589,538.414,0.0
50206.0,STARLINK-3258,PAYLOAD,2022-08-08 18:18:47,15.08804385,0.0001425,53.2203,355.1278,113.4304,246.6838,-0.00048018,-7.914e-05,0.0,0 STARLINK-3258,1 50206U 21125BC  22220.76304966 -.00007914  00000-0 -48018-3 0  9990,2 50206  53.2203 355.1278 0001425 113.4304 246.6838 15.08804385 37053,6917.989000000001,95.44,540.84,538.868,0.0
50206.0,STARLINK-3258,PAYLOAD,2022-08-08 21:29:29,15.088487300000002,0.0001468,53.2202,354.5327,83.6889,276.427,0.00033098,4.985e-05,0.0,0 STARLINK-3258,1 50206U 21125BC  22220.89548209  .00004985  00000-0  33098-3 0  9999,2 50206  53.2202 354.5327 0001468  83.6889 276.4270 15.08848730 37078,6917.854,95.437,540.734,538.703,0.0
50206.0,STARLINK-3258,PAYLOAD,2022-08-09 02:15:39,15.08855882,0.0001509,53.2189,353.6411,60.0412,300.073,0.00011001,1.464e-05,0.0,0 STARLINK-3258,1 50206U 21125BC  22221.09420162  .00001464  00000-0  11001-3 0  9998,2 50206  53.2189 353.6411 0001509  60.0412 300.0730 15.08855882 37108,6917.831999999999,95.437,540.741,538.653,0.0
50206.0,STARLINK-3258,PAYLOAD,2022-08-09 11:47:58,15.08839112,0.0001291,53.2186,351.8563,62.5038,297.6086,8.690700000000001e-05,1.095e-05,0.0,0 STARLINK-3258,1 50206U 21125BC  22221.49165024  .00001095  00000-0  86907-4 0  9993,2 50206  53.2186 351.8563 0001291  62.5038 297.6086 15.08839112 37161,6917.8830000000025,95.438,540.641,538.855,0.0
50206.0,STARLINK-3258,PAYLOAD,2022-08-09 19:44:53,15.08871307,0.0001512,53.2185,350.372,61.889,298.2255,-0.00043975,-7.286e-05,0.0,0 STARLINK-3258,1 50206U 21125BC  22221.82284548 -.00007286  00000-0 -43975-3 0  9990,2 50206  53.2185 350.3720 0001512  61.8890 298.2255 15.08871307 37216,6917.785,95.436,540.696,538.604,0.0
50206.0,STARLINK-3258,PAYLOAD,2022-08-10 11:38:47,15.08805989,0.0001111,53.2193,347.397,61.2352,298.8752,9.9233e-05,1.29e-05,0.0,0 STARLINK-3258,1 50206U 21125BC  22222.48527405  .00001290  00000-0  99233-4 0  9991,2 50206  53.2193 347.3970 0001111  61.2352 298.8752 15.08805989 37312,6917.984,95.44,540.618,539.081,0.0
50206.0,STARLINK-3258,PAYLOAD,2022-08-10 18:00:20,15.08821123,0.0002424999999999,53.2184,346.2077,96.8428,263.284,-0.0001084,-2.012e-05,0.0,0 STARLINK-3258,1 50206U 21125BC  22222.75023401 -.00002012  00000-0 -10840-3 0  9999,2 50206  53.2184 346.2077 0002425  96.8428 263.2840 15.08821123 37351,6917.938,95.439,541.481,538.125,0.0
50206.0,STARLINK-3258,PAYLOAD,2022-08-11 13:04:57,15.08827399,0.0001567,53.2186,342.6392,59.7923,300.3224,-1.6971e-05,-5.58e-06,0.0,0 STARLINK-3258,1 50206U 21125BC  22223.54511227 -.00000558  00000-0 -16971-4 0  9990,2 50206  53.2186 342.6392 0001567  59.7923 300.3224 15.08827399 37470,6917.919,95.438,540.868,538.7,0.0
50206.0,STARLINK-3258,PAYLOAD,2022-08-11 17:51:07,15.08829241,0.0001607,53.2185,341.7474,57.8046,302.3102,3.1495e-05,2.13e-06,0.0,0 STARLINK-3258,1 50206U 21125BC  22223.74383149  .00000213  00000-0  31495-4 0  9996,2 50206  53.2185 341.7474 0001607  57.8046 302.3102 15.08829241 37509,6917.913000000001,95.438,540.89,538.6669999999998,0.0
50206.0,STARLINK-3258,PAYLOAD,2022-08-12 12:55:44,15.08835428,0.0001565999999999,53.2185,338.1791,57.6747,302.4396,0.00025581,3.785e-05,0.0,0 STARLINK-3258,1 50206U 21125BC  22224.53870763  .00003785  00000-0  25581-3 0  9992,2 50206  53.2185 338.1791 0001566  57.6747 302.4396 15.08835428 37624,6917.894,95.438,540.8430000000002,538.6759999999998,0.0
50206.0,STARLINK-3258,PAYLOAD,2022-08-12 17:41:53,15.088405300000002,0.0001582,53.2186,337.2871,58.0725,302.0421,0.00030157,4.515e-05,0.0,0 STARLINK-3258,1 50206U 21125BC  22224.73742599  .00004515  00000-0  30157-3 0  9996,2 50206  53.2186 337.2871 0001582  58.0725 302.0421 15.08840530 37651,6917.879,95.438,540.8380000000002,538.649,0.0
50206.0,STARLINK-3258,PAYLOAD,2022-08-13 12:46:31,15.08842839,0.0001599,53.2177,333.7186,57.3245,302.7902,8.198399999999999e-05,1.017e-05,0.0,0 STARLINK-3258,1 50206U 21125BC  22225.53231005  .00001017  00000-0  81984-4 0  9999,2 50206  53.2177 333.7186 0001599  57.3245 302.7902 15.08842839 37776,6917.871999999999,95.437,540.8430000000002,538.631,0.0
50206.0,STARLINK-3258,PAYLOAD,2022-08-13 15:57:18,15.08840247,0.0001649,53.2191,333.1249,61.3752,298.7406,3.4251e-05,2.57e-06,0.0,0 STARLINK-3258,1 50206U 21125BC  22225.66479175  .00000257  00000-0  34251-4 0  9995,2 50206  53.2191 333.1249 0001649  61.3752 298.7406 15.08840247 37796,6917.88,95.438,540.885,538.604,0.0
50206.0,STARLINK-3258,PAYLOAD,2022-08-14 12:37:18,15.08846237,0.0001651,53.2186,329.2595,62.3462,297.7698,-5.3837e-06,-3.74e-06,0.0,0 STARLINK-3258,1 50206U 21125BC  22226.52590700 -.00000374  00000-0 -53837-5 0  9993,2 50206  53.2186 329.2595 0001651  62.3462 297.7698 15.08846237 37924,6917.861,95.437,540.868,538.5840000000002,0.0
50206.0,STARLINK-3258,PAYLOAD,2022-08-14 15:48:04,15.0884784,0.0001633,53.2183,328.6642,56.8223,303.2925,2.5376e-05,1.16e-06,0.0,0 STARLINK-3258,1 50206U 21125BC  22226.65838550  .00000116  00000-0  25376-4 0  9993,2 50206  53.2183 328.6642 0001633  56.8223 303.2925 15.08847840 37949,6917.856,95.437,540.851,538.592,0.0
50206.0,STARLINK-3258,PAYLOAD,2022-08-15 10:52:41,15.08846968,0.0001598,53.2182,325.0956,63.3923,296.7233,0.00011998,1.622e-05,0.0,0 STARLINK-3258,1 50206U 21125BC  22227.45326387  .00001622  00000-0  11998-3 0  9999,2 50206  53.2182 325.0956 0001598  63.3923 296.7233 15.08846968 38069,6917.859,95.437,540.83,538.619,0.0
50206.0,STARLINK-3258,PAYLOAD,2022-08-15 18:49:37,15.08844142,0.000158,53.2175,323.6083,55.9547,304.1595,8.515600000000001e-05,1.068e-05,0.0,0 STARLINK-3258,1 50206U 21125BC  22227.78446532  .00001068  00000-0  85156-4 0  9992,2 50206  53.2175 323.6083 0001580  55.9547 304.1595 15.08844142 38119,6917.868,95.437,540.826,538.64,0.0
50206.0,STARLINK-3258,PAYLOAD,2022-08-16 10:43:29,15.08836324,0.0001614,53.2173,320.6346,55.70399999999999,304.4105,-3.9621e-05,-9.18e-06,0.0,0 STARLINK-3258,1 50206U 21125BC  22228.44687067 -.00000918  00000-0 -39621-4 0  9997,2 50206  53.2173 320.6346 0001614  55.7040 304.4105 15.08836324 38214,6917.892,95.438,540.873,538.64,0.0
50206.0,STARLINK-3258,PAYLOAD,2022-08-17 12:09:39,15.08846523,0.0001583,53.2178,315.8764,59.2145,300.9003,0.00015485,2.178e-05,0.0,0 STARLINK-3258,1 50206U 21125BC  22229.50670628  .00002178  00000-0  15485-3 0  9999,2 50206  53.2178 315.8764 0001583  59.2145 300.9003 15.08846523 38376,6917.86,95.437,540.821,538.63,0.0
50206.0,STARLINK-3258,PAYLOAD,2022-08-18 12:00:26,15.08845592,0.0001453,53.2162,311.4147,76.577,283.5384,0.0001982,2.868e-05,0.0,0 STARLINK-3258,1 50206U 21125BC  22230.50030537  .00002868  00000-0  19820-3 0  9993,2 50206  53.2162 311.4147 0001453  76.5770 283.5384 15.08845592 38528,6917.863,95.437,540.7330000000002,538.7230000000002,0.0
50206.0,STARLINK-3258,PAYLOAD,2022-08-19 11:51:13,15.08835454,0.0001547,53.2167,306.9565,59.3371,300.7774,-0.00011075,-2.05e-05,0.0,0 STARLINK-3258,1 50206U 21125BC  22231.49390861 -.00002050  00000-0 -11075-3 0  9990,2 50206  53.2167 306.9565 0001547  59.3371 300.7774 15.08835454 38673,6917.894,95.438,540.8290000000002,538.689,0.0
50206.0,STARLINK-3258,PAYLOAD,2022-08-20 11:42:01,15.08824643,0.0001621999999999,53.2169,302.4964,52.7216,307.3923,-0.00013762,-2.477e-05,0.0,0 STARLINK-3258,1 50206U 21125BC  22232.48751644 -.00002477  00000-0 -13762-3 0  9998,2 50206  53.2169 302.4964 0001622  52.7216 307.3923 15.08824643 38822,6917.927,95.439,540.914,538.67,0.0
50206.0,STARLINK-3258,PAYLOAD,2022-08-20 21:14:20,15.08835911,0.0001363,53.2179,300.7125,65.1047,295.0086,-0.00020293,-3.516e-05,0.0,0 STARLINK-3258,1 50206U 21125BC  22232.88495909 -.00003516  00000-0 -20293-3 0  9993,2 50206  53.2179 300.7125 0001363  65.1047 295.0086 15.08835911 38884,6917.893,95.438,540.701,538.815,0.0
50206.0,STARLINK-3258,PAYLOAD,2022-08-21 11:32:52,15.08721261,0.000216,53.2175,298.0361,71.7224,288.4003,0.0015358,0.0002416,0.0,0 STARLINK-3258,1 50206U 21125BC  22233.48116302  .00024160  00000-0  15358-2 0  9998,2 50206  53.2175 298.0361 0002160  71.7224 288.4003 15.08721261 38974,6918.243,95.445,541.6030000000002,538.614,0.0
50206.0,STARLINK-3258,PAYLOAD,2022-08-21 19:29:44,15.08827684,0.0001641,53.2175,296.5490000000001,49.499,310.6145,7.1973e-05,8.57e-06,0.0,0 STARLINK-3258,1 50206U 21125BC  22233.81232580  .00000857  00000-0  71973-4 0  9996,2 50206  53.2175 296.5490 0001641  49.4990 310.6145 15.08827684 39023,6917.918000000002,95.438,540.918,538.648,0.0
50206.0,STARLINK-3258,PAYLOAD,2022-08-21 21:05:08,15.08829248,0.0001634,53.2175,296.2518,49.9171,310.1964,6.2165e-05,7.01e-06,0.0,0 STARLINK-3258,1 50206U 21125BC  22233.87856552  .00000701  00000-0  62165-4 0  9994,2 50206  53.2175 296.2518 0001634  49.9171 310.1964 15.08829248 39032,6917.913000000001,95.438,540.909,538.648,0.0
50206.0,STARLINK-3258,PAYLOAD,2022-08-22 08:12:50,15.08831815,0.0001629,53.2176,294.1702,49.9303,310.1832,9.7365e-05,1.262e-05,0.0,0 STARLINK-3258,1 50206U 21125BC  22234.34224587  .00001262  00000-0  97365-4 0  9997,2 50206  53.2176 294.1702 0001629  49.9303 310.1832 15.08831815 39101,6917.905,95.438,540.8969999999998,538.643,0.0
50206.0,STARLINK-3258,PAYLOAD,2022-08-22 20:55:55,15.08832219,0.000167,53.2174,291.7913,49.5039,310.6098,0.00014819,2.071e-05,0.0,0 STARLINK-3258,1 50206U 21125BC  22234.87216708  .00002071  00000-0  14819-3 0  9992,2 50206  53.2174 291.7913 0001670  49.5039 310.6098 15.08832219 39180,6917.904,95.438,540.924,538.614,0.0
